[{"OBJECT_NAME":"JILIN-1 GAOFEN 03D14","OBJECT_ID":"2022-019H","EPOCH":"2026-03-09T05:21:28.150272","MEAN_MOTION":15.79650746,"ECCENTRICITY":0.00041721,"INCLINATION":97.3679,"RA_OF_ASC_NODE":161.4361,"ARG_OF_PERICENTER":150.9505,"MEAN_ANOMALY":209.1996,"EPHEMERIS_TYPE":0,"CLASSIFICATION_TYPE":"U","NORAD_CAT_ID":51831,"ELEMENT_SET_NO":999,"REV_AT_EPOCH":22440,"BSTAR":0.00075054408,"MEAN_MOTION_DOT":0.00138466,"MEAN_MOTION_DDOT":0},{"OBJECT_NAME":"DONGPO 04","OBJECT_ID":"2022-098H","EPOCH":"2026-03-09T16:03:40.489632","MEAN_MOTION":15.80228754,"ECCENTRICITY":0.00028545,"INCLINATION":97.5491,"RA_OF_ASC_NODE":200.2842,"ARG_OF_PERICENTER":268.3337,"MEAN_ANOMALY":91.7603,"EPHEMERIS_TYPE":0,"CLASSIFICATION_TYPE":"U","NORAD_CAT_ID":53451,"ELEMENT_SET_NO":999,"REV_AT_EPOCH":19957,"BSTAR":0.0010368789,"MEAN_MOTION_DOT":0.00197723,"MEAN_MOTION_DDOT":0}]
