JILIN-1 GAOFEN 03D14    
1 51831U 22019H   26068.22324248  .00138466  00000+0  75054-3 0  9992
2 51831  97.3679 161.4361 0004172 150.9505 209.1996 15.79650746224400
DONGPO 04               
1 53451U 22098H   26068.66921863  .00197723  00000+0  10369-2 0  9991
2 53451  97.5491 200.2842 0002855 268.3337  91.7603 15.80228754199574
